NORAD_CAT_ID,OBJECT_NAME,OBJECT_TYPE,EPOCH,MEAN_MOTION,ECCENTRICITY,INCLINATION,RA_OF_ASC_NODE,ARG_OF_PERICENTER,MEAN_ANOMALY,BSTAR,MEAN_MOTION_DOT,MEAN_MOTION_DDOT,TLE_LINE0,TLE_LINE1,TLE_LINE2,SEMIMAJOR_AXIS,PERIOD,APOGEE,PERIGEE,DECAYED
55757.0,STARLINK-5544,PAYLOAD,2023-08-08 15:36:17,14.983223,0.0002873,70.0,104.6618,272.151,87.932,0.00016173,1.837e-05,0.0,0 STARLINK-5544,1 55757U 23028S   23220.65020399  .00001837  00000-0  16173-3 0  9997,2 55757  70.0000 104.6618 0002873 272.1510  87.9320 14.98322300 24638,6950.217,96.107,574.078,570.085,0.0
55757.0,STARLINK-5544,PAYLOAD,2023-08-09 17:14:26,14.98328695,0.0002867,70.0008,101.9699,263.602,96.4813,-2.8836e-05,-4.37e-06,0.0,0 STARLINK-5544,1 55757U 23028S   23221.71836527 -.00000437  00000-0 -28836-4 0  9990,2 55757  70.0008 101.9699 0002867 263.6020  96.4813 14.98328695 24791,6950.197,96.107,574.055,570.069,0.0
55757.0,STARLINK-5544,PAYLOAD,2023-08-10 18:52:36,14.98323942,0.0003186,69.9988,99.2754,270.8911,89.1883,-1.5025e-05,-2.72e-06,0.0,0 STARLINK-5544,1 55757U 23028S   23222.78652848 -.00000272  00000-0 -15025-4 0  9993,2 55757  69.9988  99.2754 0003186 270.8911  89.1883 14.98323942 24954,6950.212,96.107,574.291,569.862,0.0
55757.0,STARLINK-5544,PAYLOAD,2023-08-11 09:17:48,14.98327478,0.0003243,69.9987,97.7598,271.0413,89.0375,5.9388e-05,6.16e-06,0.0,0 STARLINK-5544,1 55757U 23028S   23223.38736447  .00000616  00000-0  59388-4 0  9998,2 55757  69.9987  97.7598 0003243 271.0413  89.0375 14.98327478 25040,6950.201,96.107,574.32,569.812,0.0
55757.0,STARLINK-5544,PAYLOAD,2023-08-12 09:19:49,14.9833654,0.0003252,69.9987,95.2344,268.8848,91.1938,-0.00011211,-1.431e-05,0.0,0 STARLINK-5544,1 55757U 23028S   23224.38876298 -.00001431  00000-0 -11211-3 0  9998,2 55757  69.9987  95.2344 0003252 268.8848  91.1938 14.98336540 25193,6950.173,96.107,574.298,569.777,0.0
55757.0,STARLINK-5544,PAYLOAD,2023-08-13 18:58:38,14.98331186,0.0003277,69.9986,91.6993,269.495,90.5834,2.5043e-05,2.06e-06,0.0,0 STARLINK-5544,1 55757U 23028S   23225.79072234  .00000206  00000-0  25043-4 0  9998,2 55757  69.9986  91.6993 0003277 269.4950  90.5834 14.98331186 25403,6950.189,96.107,574.332,569.777,0.0
55757.0,STARLINK-5544,PAYLOAD,2023-08-15 01:25:11,14.98331263,0.0003182,69.999,88.5013,268.1991,91.8804,-4.3555e-06,-1.45e-06,0.0,0 STARLINK-5544,1 55757U 23028S   23227.05916161 -.00000145  00000-0 -43555-5 0  9998,2 55757  69.9990  88.5013 0003182 268.1991  91.8804 14.98331263 25599,6950.189,96.107,574.266,569.842,0.0
55757.0,STARLINK-5544,PAYLOAD,2023-08-16 01:27:12,14.98332183,0.0003135,69.999,85.9761,269.1175,90.9625,-1.2015e-06,-1.07e-06,0.0,0 STARLINK-5544,1 55757U 23028S   23228.06055980 -.00000107  00000-0 -12015-5 0  9998,2 55757  69.9990  85.9761 0003135 269.1175  90.9625 14.98332183 25743,6950.186,96.107,574.23,569.872,0.0
55757.0,STARLINK-5544,PAYLOAD,2023-08-17 01:29:13,14.98329801,0.0003103,69.9977,83.4508,268.8291,91.2513,2.0076e-05,1.47e-06,0.0,0 STARLINK-5544,1 55757U 23028S   23229.06196057  .00000147  00000-0  20076-4 0  9997,2 55757  69.9977  83.4508 0003103 268.8291  91.2513 14.98329801 25899,6950.194,96.107,574.215,569.902,0.0
55757.0,STARLINK-5544,PAYLOAD,2023-08-18 23:57:07,14.98329325,0.000305,69.9981,78.5697,270.0146,90.0664,1.0901e-05,3.7e-07,0.0,0 STARLINK-5544,1 55757U 23028S   23230.99800156  .00000037  00000-0  10901-4 0  9997,2 55757  69.9981  78.5697 0003050 270.0146  90.0664 14.98329325 26181,6950.195,96.107,574.18,569.94,0.0
55757.0,STARLINK-5544,PAYLOAD,2023-08-19 23:59:08,14.98329502,0.0003089,69.9987,76.0443,271.3718,88.7087,2.6304e-05,2.21e-06,0.0,0 STARLINK-5544,1 55757U 23028S   23231.99940086  .00000221  00000-0  26304-4 0  9994,2 55757  69.9987  76.0443 0003089 271.3718  88.7087 14.98329502 26337,6950.194,96.107,574.206,569.913,0.0
55757.0,STARLINK-5544,PAYLOAD,2023-08-21 00:01:08,14.98333861,0.0003118,69.9989,73.5186,273.4087,86.6715,4.3665e-05,4.28e-06,0.0,0 STARLINK-5544,1 55757U 23028S   23233.00079704  .00000428  00000-0  43665-4 0  9996,2 55757  69.9989  73.5186 0003118 273.4087  86.6715 14.98333861 26484,6950.181,96.107,574.213,569.879,0.0
55757.0,STARLINK-5544,PAYLOAD,2023-08-21 06:25:41,14.98324937,0.0002611,69.999,72.8452,275.8561,84.23,0.00010167,1.12e-05,0.0,0 STARLINK-5544,1 55757U 23028S   23233.26784210  .00001120  00000-0  10167-3 0  9999,2 55757  69.9990  72.8452 0002611 275.8561  84.2300 14.98324937 26527,6950.209,96.107,573.888,570.259,0.0
55757.0,STARLINK-5544,PAYLOAD,2023-08-22 22:29:03,14.98329952,0.0002789,69.9989,68.6372,260.1817,99.9027,-4.5162e-05,-6.32e-06,0.0,0 STARLINK-5544,1 55757U 23028S   23234.93684098 -.00000632  00000-0 -45162-4 0  9990,2 55757  69.9989  68.6372 0002789 260.1817  99.9027 14.98329952 26774,6950.193,96.107,573.996,570.12,0.0
55757.0,STARLINK-5544,PAYLOAD,2023-08-24 12:56:15,14.98272182,0.0003417,69.9997,64.598,250.6406,109.4384,0.00089935,0.00010638,0.0,0 STARLINK-5544,1 55757U 23028S   23236.53907142  .00010638  00000-0  89935-3 0  9996,2 55757  69.9997  64.5980 0003417 250.6406 109.4384 14.98272182 27013,6950.372,96.111,574.612,569.862,0.0
55757.0,STARLINK-5544,PAYLOAD,2023-08-25 00:09:12,14.98333195,0.0002879,69.9995,63.4187,270.6817,89.4012,2.2568e-05,1.76e-06,0.0,0 STARLINK-5544,1 55757U 23028S   23237.00639722  .00000176  00000-0  22568-4 0  9991,2 55757  69.9995  63.4187 0002879 270.6817  89.4012 14.98333195 27081,6950.183,96.107,574.049,570.047,0.0
55757.0,STARLINK-5544,PAYLOAD,2023-08-25 12:58:17,14.98330116,0.0002592,69.9996,62.0728,267.1413,92.9449,3.5367e-05,3.29e-06,0.0,0 STARLINK-5544,1 55757U 23028S   23237.54047816  .00000329  00000-0  35367-4 0  9998,2 55757  69.9996  62.0728 0002592 267.1413  92.9449 14.98330116 27165,6950.193,96.107,573.859,570.256,0.0
55757.0,STARLINK-5544,PAYLOAD,2023-08-25 19:22:49,14.98338863,0.0002599,69.9994,61.3992,266.4771,93.6091,-9.0373e-05,-1.171e-05,0.0,0 STARLINK-5544,1 55757U 23028S   23237.80751549 -.00001171  00000-0 -90373-4 0  9998,2 55757  69.9994  61.3992 0002599 266.4771  93.6091 14.98338863 27207,6950.165,96.106,573.837,570.224,0.0
55757.0,STARLINK-5544,PAYLOAD,2023-08-26 11:24:10,14.98331249,0.0003,69.9997,59.7164,270.3294,89.7521,-2.4469e-05,-3.85e-06,0.0,0 STARLINK-5544,1 55757U 23028S   23238.47511732 -.00000385  00000-0 -24469-4 0  9999,2 55757  69.9997  59.7164 0003000 270.3294  89.7521 14.98331249 27300,6950.189,96.107,574.139,569.969,0.0
55757.0,STARLINK-5544,PAYLOAD,2023-08-26 21:00:58,14.98329431,0.0002879,70.0002,58.707,270.5434,89.5395,-3.0848e-05,-4.61e-06,0.0,0 STARLINK-5544,1 55757U 23028S   23238.87567870 -.00000461  00000-0 -30848-4 0  9990,2 55757  70.0002  58.7070 0002879 270.5434  89.5395 14.98329431 27369,6950.195,96.107,574.061,570.059,0.0
55757.0,STARLINK-5544,PAYLOAD,2023-08-26 22:37:06,14.98332936,0.0003281,69.9997,58.5385,269.7008,90.3775,-7.2908e-05,-9.63e-06,0.0,0 STARLINK-5544,1 55757U 23028S   23238.94243671 -.00000963  00000-0 -72908-4 0  9998,2 55757  69.9997  58.5385 0003281 269.7008  90.3775 14.98332936 27378,6950.184,96.107,574.329,569.768,0.0
55757.0,STARLINK-5544,PAYLOAD,2023-08-27 17:50:43,14.98329146,0.0002879,69.9999,56.518,265.2371,94.846,-2.4564e-05,-3.86e-06,0.0,0 STARLINK-5544,1 55757U 23028S   23239.74355783 -.00000386  00000-0 -24564-4 0  9999,2 55757  69.9999  56.5180 0002879 265.2371  94.8460 14.98329146 27499,6950.196,96.107,574.061,570.06,0.0
55757.0,STARLINK-5544,PAYLOAD,2023-08-27 21:02:59,14.98330135,0.0002977,69.9997,56.1811,267.3897,92.6922,-1.4516e-05,-2.66e-06,0.0,0 STARLINK-5544,1 55757U 23028S   23239.87707678 -.00000266  00000-0 -14516-4 0  9990,2 55757  69.9997  56.1811 0002977 267.3897  92.6922 14.98330135 27511,6950.192,96.107,574.127,569.988,0.0
55757.0,STARLINK-5544,PAYLOAD,2023-08-28 17:52:44,14.98329353,0.0003031,69.9997,53.9928,269.9612,90.1199,2.8092e-05,2.42e-06,0.0,0 STARLINK-5544,1 55757U 23028S   23240.74495573  .00000242  00000-0  28092-4 0  9992,2 55757  69.9997  53.9928 0003031 269.9612  90.1199 14.98329353 27643,6950.195,96.107,574.166,569.953,0.0
55757.0,STARLINK-5544,PAYLOAD,2023-08-28 21:05:00,14.98330259,0.0003058,69.9997,53.656,269.4788,90.6021,1.302e-05,6.2e-07,0.0,0 STARLINK-5544,1 55757U 23028S   23240.87847543  .00000062  00000-0  13020-4 0  9999,2 55757  69.9997  53.6560 0003058 269.4788  90.6021 14.98330259 27668,6950.192,96.107,574.182,569.932,0.0
55757.0,STARLINK-5544,PAYLOAD,2023-08-29 19:30:53,14.98328654,0.0003117,69.9996,51.2986,269.8203,90.2599,-4.6879e-06,-1.49e-06,0.0,0 STARLINK-5544,1 55757U 23028S   23241.81311692 -.00000149  00000-0 -46879-5 0  9992,2 55757  69.9996  51.2986 0003117 269.8203  90.2599 14.98328654 27803,6950.197,96.107,574.228,569.896,0.0
55757.0,STARLINK-5544,PAYLOAD,2023-08-29 22:43:09,14.98330433,0.0003118,69.9997,50.962,269.9283,90.1519,1.4535e-05,8e-07,0.0,0 STARLINK-5544,1 55757U 23028S   23241.94663529  .00000080  00000-0  14535-4 0  9990,2 55757  69.9997  50.9620 0003118 269.9283  90.1519 14.98330433 27826,6950.192,96.107,574.224,569.889,0.0
55757.0,STARLINK-5544,PAYLOAD,2023-08-30 17:56:45,14.98332544,0.0003026,69.9999,48.9433,268.6377,91.4436,1.3902e-05,7.3e-07,0.0,0 STARLINK-5544,1 55757U 23028S   23242.74775374  .00000073  00000-0  13902-4 0  9990,2 55757  69.9999  48.9433 0003026 268.6377  91.4436 14.98332544 27945,6950.185,96.107,574.153,569.947,0.0
55757.0,STARLINK-5544,PAYLOAD,2023-08-31 09:58:06,14.98330556,0.0002828,70.0036,47.2643,265.3063,94.7773,8.1913e-05,8.85e-06,0.0,0 STARLINK-5544,1 55757U 23028S   23243.41535162  .00000885  00000-0  81913-4 0  9992,2 55757  70.0036  47.2643 0002828 265.3063  94.7773 14.98330556 28043,6950.191,96.107,574.022,570.091,0.0
55757.0,STARLINK-5544,PAYLOAD,2023-08-31 21:11:02,14.98330729,0.0002872,70.0026,46.0858,252.3029,107.7817,5.5988e-05,5.75e-06,0.0,0 STARLINK-5544,1 55757U 23028S   23243.88267143  .00000575  00000-0  55988-4 0  9993,2 55757  70.0026  46.0858 0002872 252.3029 107.7817 14.98330729 28118,6950.191,96.107,574.052,570.06,0.0
